ASTROCAST-0403          
1 55111U 23001DG  26068.82333059  .00013959  00000+0  51317-3 0  9990
2 55111  97.5604 161.3228 0004771 338.0704  22.0330 15.28004949129377
STARLINK-31868          
1 59783U 24093B   26068.37509835 -.00000466  00000+0 -74084-5 0  9997
2 59783  43.0032 207.4500 0001444 253.4787 106.5907 15.27575082102680
