[{"OBJECT_NAME":"ASTROCAST-0403","OBJECT_ID":"2023-001DG","EPOCH":"2026-03-09T19:45:35.762976","MEAN_MOTION":15.28004949,"ECCENTRICITY":0.00047706,"INCLINATION":97.5604,"RA_OF_ASC_NODE":161.3228,"ARG_OF_PERICENTER":338.0704,"MEAN_ANOMALY":22.033,"EPHEMERIS_TYPE":0,"CLASSIFICATION_TYPE":"U","NORAD_CAT_ID":55111,"ELEMENT_SET_NO":999,"REV_AT_EPOCH":12937,"BSTAR":0.0005131719,"MEAN_MOTION_DOT":0.00013959,"MEAN_MOTION_DDOT":0},{"OBJECT_NAME":"STARLINK-31868","OBJECT_ID":"2024-093B","EPOCH":"2026-03-09T09:00:08.497440","MEAN_MOTION":15.27575082,"ECCENTRICITY":0.00014446,"INCLINATION":43.0032,"RA_OF_ASC_NODE":207.45,"ARG_OF_PERICENTER":253.4787,"MEAN_ANOMALY":106.5907,"EPHEMERIS_TYPE":0,"CLASSIFICATION_TYPE":"U","NORAD_CAT_ID":59783,"ELEMENT_SET_NO":999,"REV_AT_EPOCH":10268,"BSTAR":-7.408383e-6,"MEAN_MOTION_DOT":-4.66e-6,"MEAN_MOTION_DDOT":0}]
